{"isoAlpha2": "ZA", "isoAlpha3": "ZAF", "m49Code": 710, "name": "South Africa", "isoName": "South Africa", "isoNameFull": "the Republic of South Africa", "isoAdminLanguages": [{"isoAlpha3": "afr", "isoAlpha2": "af", "isoName": "Afrikaans", "nativeName": "Afrikaans"}, {"isoAlpha3": "eng", "isoAlpha2": "en", "isoName": "English", "nativeName": "English"}, {"isoAlpha3": "nbl", "isoAlpha2": "nr", "isoName": "Ndebele, South; South Ndebele", "nativeName": "South Ndebele"}, {"isoAlpha3": "nso", "isoAlpha2": "", "isoName": "Pedi; Sepedi; Northern Sotho", "nativeName": "Northern Sotho"}, {"isoAlpha3": "sot", "isoAlpha2": "st", "isoName": "Sotho, Southern", "nativeName": "Southern Sotho"}, {"isoAlpha3": "ssw", "isoAlpha2": "ss", "isoName": "Swati", "nativeName": "Swati"}, {"isoAlpha3": "tso", "isoAlpha2": "ts", "isoName": "Tsonga", "nativeName": "Tsonga"}, {"isoAlpha3": "tsn", "isoAlpha2": "tn", "isoName": "Tswana", "nativeName": "Tswana"}, {"isoAlpha3": "ven", "isoAlpha2": "ve", "isoName": "Venda", "nativeName": "Venda"}, {"isoAlpha3": "xho", "isoAlpha2": "xh", "isoName": "Xhosa", "nativeName": "Xhosa"}, {"isoAlpha3": "zul", "isoAlpha2": "zu", "isoName": "Zulu", "nativeName": "isiZulu"}], "unRegion": "Sub-Saharan Africa/Southern Africa", "currency": {"numericCode": 710, "code": "ZAR", "name": "Rand", "minorUnits": 2}, "wbRegion": {"id": "SSF", "iso2Code": "ZG", "value": "Sub-Saharan Africa"}, "wbIncomeLevel": {"id": "UMC", "iso2Code": "XT", "value": "Upper middle income"}, "callingCode": "27", "countryFlagEmoji": "\ud83c\uddff\ud83c\udde6", "wikidataId": "Q258", "geonameId": 953987, "continents": [{"continent": "Africa", "continentCode": "AF"}]}